# From MPC106342
C/1995 O1 (Hale-Bopp),e,89.0820,283.1655,130.4791,178.1643,0.0004145,0.99495808,0.0000,03/29.7501/1997,2000,g -2.0,4.0
# From NK 1615
P/1996 R2 (Lagerkvist),e,2.6005,40.0187,333.3287,3.774939,0.1343814,0.31426586,122.7012,08/13.0/2021,2000,g 11.5,4.0
# From MPC 30063
P/1997 B1 (Kobayashi),e,12.3395,328.8814,183.3331,8.576409,0.0392415,0.76026993,351.0629,08/13.0/2021,2000,g 15.0,2.0
# From MPC 75703
P/1998 VS24 (LINEAR),e,5.0262,159.0361,244.6159,4.527962,0.1022939,0.24237585,133.2622,08/13.0/2021,2000,g 13.0,2.0
# From NK 731
P/1999 RO28 (LONEOS),e,7.5673,137.8858,231.2640,3.426678,0.1553796,0.67227542,120.9933,08/13.0/2021,2000,g 20.0,2.0
# From MPC 75704
P/1999 XN120 (Catalina),e,5.0296,285.2967,161.8130,4.179075,0.1153676,0.21020793,175.9962,08/13.0/2021,2000,g 13.5,2.0
# From NK 744
P/2000 R2 (LINEAR),e,11.6865,160.2869,176.5450,3.466757,0.1526929,0.53161578,120.2367,08/13.0/2021,2000,g 18.0,4.0
# From MPC 43019
P/2001 H5 (NEAT),e,8.3667,328.6827,224.8408,6.097627,0.0654580,0.59837271,139.1729,08/13.0/2021,2000,g 12.0,4.0
# From MPC 75704
P/2001 Q6 (NEAT),e,56.9092,22.1609,42.9293,7.954117,0.0439356,0.82300632,319.1510,08/13.0/2021,2000,g 13.5,4.0
# From MPC 47727
P/2002 EJ57 (LINEAR),e,4.9762,330.3262,167.3525,6.469858,0.0598911,0.59237006,69.0008,08/13.0/2021,2000,g 12.5,4.0
# From MPC109588
P/2002 T6 (NEAT-LINEAR),e,10.8382,206.2430,219.6654,7.687924,0.0462371,0.56082891,310.3398,08/13.0/2021,2000,g 10.5,4.0
# From MPC 75007
C/2002 VQ94 (LINEAR),e,70.6183,35.0641,100.1125,184.9430,0.0003919,0.96307775,2.2245,08/13.0/2021,2000,g  9.5,2.0
# From MPC 50354
P/2003 F2 (NEAT),e,11.6064,359.0270,192.1296,6.500484,0.0594683,0.54224376,38.0176,08/13.0/2021,2000,g 16.5,2.0
# From MPC 50139
P/2003 QX29 (NEAT),e,11.3902,264.5638,37.5112,8.026365,0.0433437,0.47297963,297.0020,08/13.0/2021,2000,g  8.5,4.0
# From MPC105235
P/2003 T12 (SOHO),e,11.0199,174.5778,219.7536,2.585915,0.2370188,0.76979268,109.7603,08/13.0/2021,2000,g 17.0,4.0
# From MPC 82312
P/2004 A1 (LONEOS),e,10.5516,124.8483,21.2771,7.961887,0.0438713,0.30934750,272.8212,08/13.0/2021,2000,g  6.5,4.0
# From MPC 54558
P/2004 DO29 (Spacewatch-LINEAR),e,14.5324,147.3722,40.6573,7.286296,0.0501122,0.44112677,308.5575,08/13.0/2021,2000,g 13.5,2.0
# From MPC 54823
P/2004 FY140 (LINEAR),e,2.1348,326.7617,242.3770,4.903636,0.0907667,0.16818920,200.9049,08/13.0/2021,2000,g 12.5,2.0
# From MPC 53304
P/2004 R3 (LINEAR-NEAT),e,12.7991,305.4486,37.9760,4.788707,0.0940539,0.25925162,356.1235,08/13.0/2021,2000,g 14.5,4.0
# From MPC 55521
P/2004 V3 (Siding Spring),e,50.4414,356.1252,322.3660,7.139698,0.0516636,0.44631880,317.0536,08/13.0/2021,2000,g 11.5,4.0
# From MPC 75705
P/2004 V5 (LINEAR-Hill),e,19.3415,47.7857,87.6867,7.980583,0.0437172,0.44366693,263.9949,08/13.0/2021,2000,g  8.0,4.0
# From MPC 54164
P/2005 E1 (Tubbiolo),e,4.2638,335.5671,194.0405,7.041322,0.0527500,0.37514573,318.9886,08/13.0/2021,2000,g 10.0,4.0
# From MPC 54823
P/2005 GF8 (LONEOS),e,1.1894,314.7413,284.6861,5.827417,0.0700632,0.51734475,48.0003,08/13.0/2021,2000,g 11.5,4.0
# From MPC 79019
P/2005 J1 (McNaught),e,31.7593,268.8138,338.9617,3.570594,0.1460809,0.56954899,151.2768,08/13.0/2021,2000,g 16.5,4.0
# From MPC 74246
P/2005 L1 (McNaught),e,7.7386,138.2479,149.7298,3.976270,0.1243055,0.20965460,349.8381,08/13.0/2021,2000,g  9.5,4.0
# From MPC 75706
P/2005 S2 (Skiff),e,3.1357,161.2118,229.1745,8.014004,0.0434440,0.19756161,242.1417,08/13.0/2021,2000,g  7.5,4.0
# From MPC 75706
P/2005 SB216 (LONEOS),e,24.0898,1.1791,83.3467,7.133337,0.0517327,0.46379966,276.2450,08/13.0/2021,2000,g 12.0,2.0
# From MPC 55717
P/2005 T2 (Christensen),e,8.2917,260.1603,58.8466,3.846907,0.1306281,0.41636272,64.2124,08/13.0/2021,2000,g 14.5,4.0
# From MPC 73461
P/2005 T3 (Read),e,6.2237,27.7108,6.7773,7.583624,0.0471942,0.17453825,273.5906,08/13.0/2021,2000,g  9.0,4.0
# From MPC 73461
P/2005 T4 (SWAN),e,160.2201,25.7774,41.6826,9.361263,0.0344114,0.92973883,199.4185,08/13.0/2021,2000,g 15.0,4.0
# From MPC 75706
P/2005 T5 (Broughton),e,21.3631,57.0012,304.5792,7.288701,0.0500874,0.55238857,289.8167,08/13.0/2021,2000,g 11.0,4.0
# From MPEC 2021-P47
P/2005 W3 (Kowalski),e,16.4215,210.0886,200.7271,6.328371,0.0619108,0.54331549,357.6231,08/13.0/2021,2000,g 12.0,4.0
# From MPC 75706
P/2005 Y2 (McNaught),e,19.0531,94.3806,193.8754,6.375949,0.0612191,0.47017263,18.2238,08/13.0/2021,2000,g  9.0,4.0
# From MPC 56954
P/2006 F4 (Spacewatch),e,12.4287,183.8255,30.9114,3.520662,0.1491996,0.34036271,110.6404,08/13.0/2021,2000,g 15.0,4.0
# From MPC 75707
P/2006 HR30 (Siding Spring),e,31.8317,309.8978,117.2945,7.811089,0.0451478,0.84239307,241.8826,08/13.0/2021,2000,g 11.0,4.0
# From MPEC 2021-P47
P/2006 S4 (Christensen),e,39.5314,36.0719,305.1407,6.317857,0.0620654,0.50850807,350.4508,08/13.0/2021,2000,g 11.0,4.0
# From MPC 75707
P/2007 A2 (Christensen),e,26.4877,300.9078,186.7270,6.329138,0.0618995,0.55782756,330.7094,08/13.0/2021,2000,g 13.5,4.0
# From MPC 75707
P/2007 C2 (Catalina),e,8.6309,275.4833,180.0643,6.992467,0.0533038,0.47105792,270.1457,08/13.0/2021,2000,g 10.0,4.0
# From MPC 84315
C/2007 D1 (LINEAR),e,41.5017,171.2164,339.9905,1374,0.0000193,0.99358402,0.0000,06/08.0994/2007,2000,g  3.5,4.0
# From MPC 82314
P/2007 K2 (Gibbs),e,7.6312,188.6410,347.4286,7.266704,0.0503150,0.68303607,261.0596,08/13.0/2021,2000,g 14.0,4.0
# From MPC 60925
P/2007 Q2 (Gilmore),e,10.2027,172.1590,162.7835,5.652869,0.0733332,0.67011264,18.9950,08/13.0/2021,2000,g 16.0,4.0
# From MPC 75708
P/2007 R4 (Garradd),e,20.2108,87.2049,282.5852,5.935803,0.0681530,0.67021732,351.9779,08/13.0/2021,2000,g 14.5,4.0
# From MPC 73462
P/2007 S1 (Zhao),e,5.9641,141.3702,245.5440,3.817761,0.1321268,0.33960763,304.3767,08/13.0/2021,2000,g 13.0,4.0
# From MPC 61994
P/2007 T2 (Kowalski),e,9.7498,3.3752,359.6408,3.046778,0.1853288,0.78546238,206.8159,08/13.0/2021,2000,g 18.5,4.0
# From MPEC 2021-N06
P/2008 CL94 (Lemmon),e,8.3463,33.3168,80.4293,6.163337,0.0644140,0.12044427,357.5324,08/13.0/2021,2000,g 10.0,4.0
# From MPC 75709
P/2008 L2 (Hill),e,25.8638,218.0102,141.2297,6.028301,0.0665904,0.61325525,317.6430,08/13.0/2021,2000,g 12.5,4.0
# From MPC 64114
P/2008 O3 (Boattini),e,32.2809,47.5827,341.1075,8.220448,0.0418178,0.69562075,201.8873,08/13.0/2021,2000,g 13.0,4.0
# From MPC 75709
P/2008 QP20 (LINEAR-Hill),e,7.5223,322.0723,75.5300,3.552851,0.1471765,0.49160863,339.0787,08/13.0/2021,2000,g 15.5,4.0
# From MPC 66204
P/2008 WZ96 (LINEAR),e,7.1118,56.4458,341.9348,3.486760,0.1513809,0.46978899,357.9124,08/13.0/2021,2000,g 13.5,4.0
# From MPC 75710
P/2008 Y3 (McNaught),e,38.7682,262.8082,238.1833,8.047222,0.0431753,0.44544576,199.3798,08/13.0/2021,2000,g  8.5,4.0
# From MPC 75710
P/2009 B1 (Boattini),e,22.2213,297.0886,128.8747,6.737292,0.0563607,0.63494423,259.4448,08/13.0/2021,2000,g 13.0,4.0
# From MPC 66466
C/2009 G1 (STEREO),e,108.7151,120.4504,175.4364,442.0097,0.0001061,0.99742651,0.0000,04/16.2294/2009,2000,g  9.0,4.0
# From MPC 75710
P/2009 O3 (Hill),e,16.2772,183.6981,154.4314,7.768757,0.0455173,0.68782326,203.2045,08/13.0/2021,2000,g 12.5,4.0
# From MPC 68902
P/2009 Q5 (McNaught),e,40.9865,160.2774,209.0345,7.435140,0.0486150,0.60920289,211.9063,08/13.0/2021,2000,g 10.0,4.0
# From MPC112389
P/2009 T2 (La Sagra),e,27.5705,215.8325,216.3725,7.722727,0.0459249,0.76549887,195.0321,08/13.0/2021,2000,g 14.0,4.0
# From MPC105235
P/2009 WX51 (Catalina),e,9.5941,31.6643,118.1172,3.081450,0.1822097,0.74021740,49.1333,08/13.0/2021,2000,g 19.0,2.0
# From MPC 74247
P/2009 Y2 (Kowalski),e,29.9366,262.0267,172.1406,6.550163,0.0587930,0.63611451,246.0044,08/13.0/2021,2000,g 13.0,4.0
# From MPC 75711
P/2010 A3 (Hill),e,14.8335,63.8386,42.1442,6.079194,0.0657560,0.73350640,274.0129,08/13.0/2021,2000,g 14.0,4.0
# From MPC 75008
P/2010 C1 (Scotti),e,9.1281,141.8861,3.6370,7.103720,0.0520565,0.25892576,223.4817,08/13.0/2021,2000,g  9.5,4.0
# From MPC 75008
P/2010 D2 (WISE),e,57.0858,319.8908,120.0219,6.717600,0.0566087,0.45104163,237.7753,08/13.0/2021,2000,g 16.0,4.0
# From MPC 75009
P/2010 E2 (Jarnac),e,15.3932,177.8228,8.3561,8.639420,0.0388130,0.71977964,161.1880,08/13.0/2021,2000,g 14.0,4.0
# From MPC 72851
P/2010 H2 (Vales),e,14.2747,64.1952,128.0975,3.833365,0.1313209,0.19593845,188.3814,08/13.0/2021,2000,g  6.0,4.0
# From MPC 70361
P/2010 H3 (SOHO),e,23.0733,77.0921,26.1524,3.037579,0.1861713,0.98536798,0.0000,02/07.9584/2021,2000,g 20.0,2.0
# From MPC 73463
P/2010 H4 (Scotti),e,2.3183,44.7371,179.5160,6.592870,0.0582227,0.26696904,237.2646,08/13.0/2021,2000,g 10.5,4.0
# From MPC 74637
P/2010 H5 (Scotti),e,14.0619,24.8031,175.1380,7.163327,0.0514081,0.15305027,213.3603,08/13.0/2021,2000,g 13.0,2.0
# From MPC 98558
P/2010 J3 (McMillan),e,13.2840,106.4232,157.5998,8.973963,0.0366630,0.72673319,146.7120,08/13.0/2021,2000,g 11.0,4.0
# From MPC 84315
P/2010 JC81 (WISE),e,38.7634,30.8517,12.4270,8.108996,0.0426829,0.77715093,160.8099,08/13.0/2021,2000,g  9.0,4.0
# From MPC 74248
P/2010 T2 (PANSTARRS),e,7.8940,58.8303,353.2753,5.534471,0.0756990,0.32163867,287.9468,08/13.0/2021,2000,g 11.5,4.0
# From MPC 98558
P/2010 TO20 (LINEAR-Grauer),e,2.4789,43.2926,266.8870,5.831270,0.0699938,0.05515880,327.4663,08/13.0/2021,2000,g  9.0,4.0
# From MPC 82316
P/2010 U1 (Boattini),e,8.2155,280.7051,85.9932,6.508678,0.0593560,0.24856170,250.2630,08/13.0/2021,2000,g  9.5,4.0
# From MPEC 2021-P47
C/2010 U3 (Boattini),e,55.5318,43.0168,88.0580,2247,0.0000093,0.99624299,0.0000,02/25.4944/2019,2000,g  1.0,4.0
# From MPC 79021
P/2010 UH55 (Spacewatch),e,8.0407,232.9379,225.1693,6.653256,0.0574318,0.56335204,217.0191,08/13.0/2021,2000,g 11.0,4.0
# From MPC 75009
P/2010 WK (LINEAR),e,11.4013,11.3266,40.9668,5.761726,0.0712648,0.69003731,283.4675,08/13.0/2021,2000,g 14.5,2.0
# From MPC 82317
P/2011 A2 (Scotti),e,4.4748,54.6760,94.5100,3.106202,0.1800361,0.49951265,340.0818,08/13.0/2021,2000,g 16.5,4.0
# From MPC 84021
P/2011 C2 (Gibbs),e,10.8850,12.1241,160.8579,7.413693,0.0488261,0.26887928,171.6386,08/13.0/2021,2000,g  9.0,4.0
# From MPC 79866
